PSLV DEB
1 27133U 01049CD  24168.46136600  .00002018  00000-0  36839-3 0  9990
2 27133  97.6685 131.9135 0045047  55.0783 305.4642 14.66299638199096
PSLV DEB
1 27136U 01049CG  24168.58203734  .00006610  00000-0  56343-3 0  9993
2 27136  97.9885 218.0030 0033026 260.6591 258.3562 14.97678811234983
PSLV DEB
1 27141U 01049CM  24168.56444885  .00002999  00000-0  34018-3 0  9992
2 27141  98.1652 191.5081 0051500 104.0014  47.1133 14.86194998213277
PSLV DEB
1 27142U 01049CN  24168.40264045  .00001585  00000-0  61009-3 0  9994
2 27142  97.3621 325.6728 0281906 189.7515 169.8121 14.11818565155785
PSLV DEB
1 27146U 01049CS  24168.60564260  .00006251  00000-0  71659-3 0  9999
2 27146  98.1318 219.7789 0044375 165.5115 348.6436 14.85566982207559
PSLV DEB
1 27151U 01049CX  24168.54443929  .00036795  00000-0  99254-3 0  9993
2 27151  97.6744 220.1686 0020188 185.7965 174.3048 15.37496361229500
PSLV DEB
1 27152U 01049CY  24168.58072518  .00005875  00000-0  56706-3 0  9990
2 27152  98.0415 225.3043 0028267 290.5066  69.3119 14.92966176211293
PSLV DEB
1 27153U 01049CZ  24168.40040118  .00013548  00000-0  88041-3 0  9996
2 27153  97.8934 225.5917 0026819 129.5537 230.8066 15.07846177219888
PSLV DEB
1 27160U 01049DG  24168.56513911  .00000932  00000-0  16464-3 0  9990
2 27160  98.4075 173.5363 0047681  36.0517  91.6551 14.69235283203709
USA 164
1 27168U 02001A   24168.29962125  .00000096  00000-0  00000-0 0  9999
2 27168  10.3126  25.8550 0099713   0.1837   3.0709  1.00277811 25634
TITAN 4 CENTAUR R/B
1 27169U 02001B   24168.18337673  .00000044  00000-0  00000-0 0  9995
2 27169   9.0807  33.5171 0052486 115.5357 244.9534  1.00140853 19051
PSLV DEB
1 27218U 01049FN  24168.18902349  .00058018  00000-0  25826-2 0  9998
2 27218  98.9704 249.0946 0116914 333.4416  26.0850 15.15238153189440
PSLV DEB
1 27226U 01049FW  24168.07087137  .00027003  00000-0  14236-2 0  9997
2 27226  97.8834 214.5845 0020855 217.7180 142.2590 15.15358696217737
PSLV DEB
1 27255U 01049HB  24168.04177233  .00018799  00000-0  11058-2 0  9994
2 27255  97.9394 193.7690 0026128 334.2904  25.7025 15.11418778216264
PSLV DEB
1 27267U 01049HP  24168.11947397  .00020699  00000-0  13271-2 0  9992
2 27267  97.9212 229.9033 0034911  78.3312 282.1829 15.08030848214978
INSAT 3C
1 27298U 02002A   24168.35778448 -.00000114  00000-0  00000-0 0  9996
2 27298   6.6383  71.4410 0010290 112.6661 134.1612  0.99299690 81839
ARIANE 42L R/B
1 27299U 02002B   24167.95906594  .00000097  00000-0  83487-3 0  9999
2 27299   4.5430  15.2851 7261489 279.0891  11.9509  2.21706084180556
PSLV DEB
1 27305U 01049KB  24168.36121727  .00002355  00000-0  34837-3 0  9994
2 27305  98.3053 199.8612 0040057 314.1871  56.0328 14.75687814205477
MDS 1
1 27367U 02003A   24168.20295763  .00054272  00000-0  21946-2 0  9999
2 27367  28.5676  10.0584 4446300 227.9726  84.6019  6.67066588341654
DASH/VEP 3
1 27368U 02003B   24168.04735808  .00000639  00000-0  17237-2 0  9997
2 27368  28.4017 158.8881 7154664 232.6047  38.7770  2.35186515188731
H-2A R/B
1 27369U 02003C   24168.08360581 -.00000091  00000-0  00000-0 0  9995
2 27369  24.4422  25.8244 6872011 185.2520 159.5157  2.37185831193150
PEGASUS R/B
1 27371U 02004B   24168.58610428  .00009841  00000-0  42318-3 0  9994
2 27371  38.0252   4.6864 0009983 343.3512  16.6926 15.22227959228994
ECHOSTAR 7
1 27378U 02006A   24168.51813312  .00000150  00000-0  00000-0 0  9996
2 27378   2.1213  86.4518 0004736 351.9230  49.0134  0.99839961 43241
INTELSAT 904
1 27380U 02007A   24168.14735694 -.00000198  00000-0  00000-0 0  9998
2 27380   5.0777  77.8556 0003115  20.2920 190.2992  1.00271421 81752
ENVISAT
1 27386U 02009A   24168.47735946  .00000226  00000-0  87478-4 0  9991
2 27386  98.2820 129.5903 0001353  91.6466  19.1834 14.38590706168408
ARIANE 5 R/B
1 27387U 02009B   24168.59878420  .00000184  00000-0  78089-4 0  9991
2 27387  98.7975 158.6896 0033232 121.3622 239.0822 14.36402696168414
TDRS 9
1 27389U 02011A   24168.23581390  .00000076  00000-0  00000-0 0  9998
2 27389  10.6030  53.8692 0005347  80.7072 270.6941  0.98979856 83042
JCSAT 2A
1 27399U 02015A   24168.04840985 -.00000223  00000-0  00000-0 0  9995
2 27399   6.4810  72.1535 0008801  46.0869 141.1711  0.99030490 81418
ASTRA 3A
1 27400U 02015B   24168.04840985 -.00000236  00000-0  00000-0 0  9992
2 27400   8.9612  54.0859 0001331  16.5288 184.6396  0.99089834 81321
ARIANE 44L R/B
1 27402U 02015D   24168.19302852  .00001234  00000-0  16206-2 0  9991
2 27402   3.8038  18.4883 7019779 147.0549 287.7682  2.55212740198300
INTELSAT 903
1 27403U 02016A   24168.43644330 -.00000208  00000-0  00000-0 0  9994
2 27403   5.8683  74.8072 0006139 350.3138 341.7744  0.99023905 38152
SL-12 R/B(2)
1 27404U 02016B   24168.15279094  .00000309  00000-0  00000-0 0  9996
2 27404  24.6251  95.1339 6235300 301.3056  12.3634  2.06288993167422
NIMBUS 2 DEB
1 27406U 66040AL  24166.90650925  .00003556  00000-0  45672-2 0  9995
2 27406 100.3028 152.4471 0035797 245.4875 146.1759 13.63201098225325
NSS 7
1 27414U 02019A   24167.77410715  .00000078  00000-0  00000-0 0  9997
2 27414   7.5752  64.8679 0004856  41.2144 148.5008  0.99078702 81215
SPOT 5
1 27421U 02021A   24168.57577103  .00000797  00000-0  18132-3 0  9998
2 27421  98.0882 224.9875 0132985  24.8689 335.8839 14.53319685156663
IDEFIX/ARIANE 42P
1 27422U 02021B   24168.59095233  .00000432  00000-0  18348-3 0  9995
2 27422  98.5276 106.2874 0010809 243.9346 116.0725 14.30138220153783
AQUA
1 27424U 02022A   24168.63046476  .00001433  00000-0  31277-3 0  9996
2 27424  98.3304 117.9975 0002197  92.2392  27.8188 14.59384492176594
DIRECTV 5 (TEMPO 1)
1 27426U 02023A   24168.56067042 -.00000039  00000-0  00000-0 0  9992
2 27426   2.9997  84.4494 0003712  10.8083 261.7828  1.00278402 80797
SL-12 R/B(2)
1 27429U 02023D   24168.04291892 -.00000145  00000-0  00000-0 0  9998
2 27429  18.1549 281.1266 5321147 275.1135   0.3729  1.90581993154003
HAIYANG 1
1 27430U 02024A   24168.45820042  .00000599  00000-0  23918-3 0  9999
2 27430  98.6293 118.4835 0010058  71.2991 288.9283 14.32056979153193
FENGYUN 1D
1 27431U 02024B   24168.59947749  .00000156  00000-0  11408-3 0  9999
2 27431  99.0538 207.1422 0016267 132.8326 227.4213 14.09988675136512
CZ-4B R/B
1 27432U 02024C   24168.60562015  .00000103  00000-0  76887-4 0  9996
2 27432  98.9747 210.9237 0050484  13.8984  99.1117 14.14327584140026
CZ-4B DEB
1 27433U 02024D   24168.60679078  .00000677  00000-0  38284-3 0  9999
2 27433  99.0110 203.6032 0015261  54.1905 306.0683 14.13552910138061
COSMOS 2389
1 27436U 02026A   24168.58240924  .00000086  00000-0  73402-4 0  9991
2 27436  82.9508 349.7179 0047314 137.2791 283.9495 13.75066240106703
SL-8 R/B
1 27437U 02026B   24168.56097348  .00000064  00000-0  48462-4 0  9994
2 27437  82.9501 332.3968 0045098  71.0254 289.5782 13.76779545108036
INTELSAT 905
1 27438U 02027A   24168.43461583 -.00000168  00000-0  00000-0 0  9996
2 27438   4.9043  78.5098 0002838 357.5213 321.1294  1.00272167 44039
EXPRESS 4A
1 27441U 02029A   24168.47137024 -.00000254  00000-0  00000-0 0  9992
2 27441  10.3609  41.8767 0006588  73.8215 119.9181  0.99209550 80518
SL-12 R/B(2)
1 27444U 02029D   24168.23682869  .00000046  00000-0  00000-0 0  9999
2 27444  13.6870  15.2698 0011653  30.4617 157.6342  0.99270716 79832
GALAXY 3C
1 27445U 02030A   24168.56371620 -.00000133  00000-0  00000-0 0  9996
2 27445   1.8426  86.8220 0003432  30.8022 255.7999  1.00271706 39167
BLOCK DM-SL R/B
1 27446U 02030B   24168.06870404  .00000474  00000-0  10501-2 0  9992
2 27446   1.3338 352.2442 7502961  63.8287 352.9070  1.95721808156356
NOAA 17
1 27453U 02032A   24168.57735756  .00000267  00000-0  13183-3 0  9998
2 27453  98.7629 119.1683 0010884 315.1848  44.8452 14.25594445142865
EUTE 5 WEST A (STELLAT5)
1 27460U 02035A   24168.14796609 -.00000172  00000-0  00000-0 0  9993
2 27460   4.1806  81.1692 0014585   5.3082 205.3450  0.98357429 80316
NSTAR C
1 27461U 02035B   24168.27072973  .00000064  00000-0  00000-0 0  9998
2 27461   9.5517  50.0812 0007449 156.0545  27.5020  0.98951356 80207
ARIANE 5 R/B
1 27462U 02035C   24168.54562490 -.00000216  00000-0 -22148-3 0  9998
2 27462   5.9590  11.7422 7179419 258.9964  14.4716  2.22687369178654
ARIANE 5 DEB (SYLDA)
1 27463U 02035D   24168.51952549 -.00000037  00000-0 -89135-3 0  9994
2 27463   5.4765 297.8231 7128318  50.3106  59.6611  2.26758681181528
COSMOS 2390
1 27464U 02036A   24168.49861244  .00000012  00000-0  13791-4 0  9991
2 27464  82.4839  81.8388 0026585  57.5979 302.7668 12.44599996996760
COSMOS 2391
1 27465U 02036B   24168.54325103  .00000013  00000-0  19871-4 0  9993
2 27465  82.4836  78.6430 0027391  52.6745 307.6825 12.44922049996929
SL-8 R/B
1 27466U 02036C   24168.49889384  .00000009  00000-0 -54164-5 0  9995
2 27466  82.4844  84.4662 0045076  71.5786 101.7943 12.44363783996698
TITAN 4B DEB
1 27469U 00047C   24167.97807840  .00000770  00000-0  88428-4 0  9990
2 27469  67.9951 162.0645 0058856  87.6676 273.1201 14.90297747190717
COSMOS 2392
1 27470U 02037A   24168.49188786  .00000166  00000-0  15576-2 0  9993
2 27470  63.4076  76.3358 0582643 356.4792 174.6985 12.06796438965101
SL-12 R/B(2)
1 27473U 02037D   24168.60293730 -.00000063  00000-0 -23785-4 0  9996
2 27473  63.4229 245.8390 0595663 346.9563 109.1666 12.01414946960738
SL-12 DEB
1 27476U 02037G   24168.53293660 -.00000103  00000-0 -30537-3 0  9990
2 27476  63.4196 232.2536 0597196 348.2377 105.5882 12.02194088961001
MIDAS 4 DEB
1 27478U 61028H   24163.22568182 -.00000005  00000-0 -36680-3 0  9998
2 27478  95.8745  63.5853 0298867 329.4154 187.3699  8.66689049527021
CZ-4 DEB
1 27482U 90081CU  24168.46110057  .00000686  00000-0  40645-3 0  9998
2 27482  98.8023 150.8929 0008954 207.5779 305.3809 14.10922488201888
